INMARSAT 4-F1           
1 28628U 05009A   17344.42052952 -.00000270  00000-0  00000-0 0  9998
2 28628   2.9004  14.4703 0003192 256.2273 103.5331  1.00271730 46483
APSTAR 6                
1 28638U 05012A   17345.50045939 -.00000325  00000-0  00000+0 0  9990
2 28638   0.0306  56.4897 0002553 202.4788 135.5962  1.00269638 71232
SPACEWAY 1              
1 28644U 05015A   17345.19768825 -.00000110  00000-0  00000+0 0  9993
2 28644   0.0485 175.2080 0000345  46.4569 186.6900  1.00272118 46330
DIRECTV 8               
1 28659U 05019A   17344.06066178 -.00000124  00000-0  00000-0 0  9996
2 28659   0.0184 305.9341 0003345 321.2180  92.8153  1.00271975 45955
GALAXY 28 (G-28)        
1 28702U 05022A   17345.28148583 -.00000192  00000-0  00000+0 0  9999
2 28702   0.0237 334.8509 0000286  34.6692  82.9954  1.00269351 45644
EXPRESS-AM3             
1 28707U 05023A   17345.41924329 -.00000328  00000-0  00000+0 0  9991
2 28707   0.0082 207.8639 0000601 107.2406  19.1319  1.00269286 45667
THAICOM 4               
1 28786U 05028A   17345.06990576 -.00000370  00000-0  00000+0 0  9998
2 28786   0.0111 336.1684 0002288 284.2741 324.1817  1.00270755 45131
GALAXY 14 (G-14)        
1 28790U 05030A   17345.17333265  .00000029  00000-0  00000+0 0  9994
2 28790   0.0135 323.6929 0002539 296.3554 117.4337  1.00272535 45116
ANIK F1R                
1 28868U 05036A   17345.18137264 -.00000082  00000-0  00000+0 0  9998
2 28868   0.0263  47.5002 0001512 267.2297  83.3485  1.00271159 44978
GALAXY 15 (G-15)        
1 28884U 05041A   17345.54395306  .00000072  00000-0  00000+0 0  9993
2 28884   0.0096 357.7348 0002581 267.1563 238.3849  1.00272171 44444
SYRACUSE 3A             
1 28885U 05041B   17344.88070333  .00000121  00000-0  00000-0 0  9996
2 28885   0.0144  45.0045 0002722 215.5674 183.2727  1.00273031 44570
INMARSAT 4-F2           
1 28899U 05044A   17344.64149456  .00000002  00000-0  00000-0 0  9999
2 28899   2.6149  14.6711 0003806 263.0241  96.6994  1.00271816 44338
TELKOM 2                
1 28902U 05046A   17344.60948690 -.00000146  00000-0  00000-0 0  9999
2 28902   0.0362  88.5117 0001136 328.2057  39.2329  1.00271097 44252
SPACEWAY 2              
1 28903U 05046B   17345.35118587 -.00000133  00000-0  00000+0 0  9992
2 28903   0.0435 141.3451 0000425 192.0263 134.2451  1.00269325 44319
INSAT-4A                
1 28911U 05049A   17344.54849935 -.00000174  00000-0  00000-0 0  9998
2 28911   0.0397 141.1544 0006670 124.7273  94.0471  1.00272586 43909
METEOSAT-9 (MSG-2)      
1 28912U 05049B   17345.13627024  .00000053  00000-0  00000+0 0  9992
2 28912   2.5522  71.5315 0003150 221.1405 205.8034  1.00267631 43898
EUTELSAT 172A (GE-23)   
1 28924U 05052A   17344.71553278  .00000002  00000-0  00000-0 0  9996
2 28924   0.0853  43.6059 0005889 221.4609 246.1606  1.00272859 21152
ECHOSTAR 10             
1 28935U 06003A   17345.51890203 -.00000062  00000-0  00000+0 0  9992
2 28935   0.0117   0.2973 0001404 256.8975 259.8382  1.00270735 43335
HIMAWARI-7 (MTSAT-2)    
1 28937U 06004A   17345.40428132 -.00000249  00000-0  00000+0 0  9998
2 28937   0.0098  54.0306 0003661 212.8052 104.0444  1.00274480 43170
SPAINSAT                
1 28945U 06007A   17343.86426408 -.00000225  00000-0  00000-0 0  9997
2 28945   0.0365 182.0332 0005976  74.7058 103.2000  1.00271241 43035
EUTELSAT HOT BIRD 13E   
1 28946U 06007B   17344.74255580  .00000079  00000-0  00000-0 0  9993
2 28946   0.0483 149.8393 0005134  92.4561 117.6576  1.00271469 43104
JCSAT-5A                
1 29045U 06010A   17345.50045939 -.00000335  00000-0  00000+0 0  9993
2 29045   0.0159  51.3508 0002394 230.7780 110.4960  1.00271424 42765
ASTRA 1KR               
1 29055U 06012A   17344.98799350  .00000112  00000-0  00000+0 0  9992
2 29055   0.0330 282.2521 0005247 327.5583 204.9471  1.00272631 42557
GOES 13                 
1 29155U 06018A   17343.98782137 -.00000260  00000-0  00000-0 0  9999
2 29155   0.2213 104.1465 0001341 308.6873 307.1841  1.00274162 42325
EUTELSAT 113 WEST A     
1 29162U 06020A   17345.09156590 -.00000045  00000-0  00000+0 0  9992
2 29162   0.0221 126.6082 0002943 136.2996  97.0640  1.00271345 42281
THAICOM 5               
1 29163U 06020B   17344.92757562 -.00000129  00000-0  00000-0 0  9994
2 29163   0.0163 275.2422 0006665   2.6538 214.3736  1.00271800 42319
GALAXY 16 (G-16)        
1 29236U 06023A   17345.41854855 -.00000134  00000-0  00000+0 0  9991
2 29236   0.0181  11.5086 0002546 251.9453 228.5469  1.00271805 42085
EUTELSAT HOT BIRD 13B   
1 29270U 06032A   17345.15327073  .00000079  00000-0  00000+0 0  9994
2 29270   0.0672  17.7381 0004547 263.3968 227.0838  1.00271779 41673
JCSAT-3A                
1 29272U 06033A   17344.77656807 -.00000353  00000-0  00000-0 0  9991
2 29272   0.0217 295.0983 0001701 329.7295 222.4452  1.00271946 16554
SYRACUSE 3B             
1 29273U 06033B   17345.15011337 -.00000051  00000-0  00000+0 0  9992
2 29273   0.0099  13.2803 0004753 262.0655 213.5519  1.00270953 41564
KOREASAT 5 (MUGUNGWHA 5)
1 29349U 06034A   17345.07476573 -.00000366  00000-0  00000+0 0  9994
2 29349   0.0323  79.0642 0000630 236.6184 264.2822  1.00271739 41443
ZHONGXING-22A           
1 29398U 06038A   17345.23731878 -.00000273  00000-0  00000+0 0  9999
2 29398   6.0748  56.7907 0004107 240.1219 327.2855  1.00071515 41224
DIRECTV 9S              
1 29494U 06043A   17344.62688108 -.00000122  00000-0  00000-0 0  9995
2 29494   0.0134  31.3459 0003061 235.1858 297.5991  1.00271659 40912
OPTUS D1                
1 29495U 06043B   17344.90557025 -.00000119  00000-0  00000-0 0  9996
2 29495   0.0403 106.0266 0003419 155.8810 303.9142  1.00271529 40939
XM-4 (BLUES)            
1 29520U 06049A   17344.95482253 -.00000031  00000-0  00000+0 0  9998
2 29520   0.0218 153.1169 0000255  93.5311  61.7440  1.00271645 40801
BADR-4                  
1 29526U 06051A   17344.93868719  .00000137  00000-0  00000-0 0  9997
2 29526   0.0451 343.0138 0005728 308.3371 152.4243  1.00274181 20114
FENGYUN 2D              
1 29640U 06053A   17344.91880471 -.00000369  00000-0  10000-3 0  9995
2 29640   4.7730  63.5097 0007674 314.5299 156.2846  1.00266241 40379
WILDBLUE-1              
1 29643U 06054A   17345.51655934 -.00000056  00000-0  00000+0 0  9998
2 29643   0.0437 149.6095 0001799 120.1778 245.4212  1.00272322 40368
AMC-18                  
1 29644U 06054B   17345.49364933 -.00000096  00000-0  00000+0 0  9996
2 29644   0.0099 332.3775 0002755 306.7919 233.9900  1.00272004 40375
MEASAT-3                
1 29648U 06056A   17344.92210122 -.00000250  00000-0  00000-0 0  9992
2 29648   0.0652 123.4457 0001515 103.2655 276.5818  1.00270465 19286
INSAT-4B                
1 30793U 07007A   17344.79976587 -.00000369  00000-0  00000-0 0  9992
2 30793   0.0940  98.0278 0001511 246.9201 133.6575  1.00422520 11023
SKYNET 5A               
1 30794U 07007B   17344.81573792 -.00000279  00000-0  00000-0 0  9997
2 30794   0.0682  16.0666 0004291 243.6767 208.8486  1.00270473 39469
ANIK F3                 
1 31102U 07009A   17345.02743580 -.00000009  00000-0  00000+0 0  9991
2 31102   0.0176   6.0018 0001868 270.2820  54.8181  1.00270336 39148
ASTRA 1L                
1 31306U 07016A   17345.15327073  .00000112  00000-0  00000+0 0  9998
2 31306   0.0485 317.5216 0005362 325.6958 231.1989  1.00272997 38855
GALAXY 17 (G-17)        
1 31307U 07016B   17344.62201916 -.00000183  00000-0  00000-0 0  9997
2 31307   0.0322  34.7416 0003131 226.5165 311.2168  1.00272517 38887
ZHONGXING-6B            
1 31800U 07031A   17344.91728692 -.00000370  00000-0  00000-0 0  9997
2 31800   0.0155 334.4801 0004110 279.9651 271.1194  1.00273327 38251
DIRECTV 10              
1 31862U 07032A   17345.06351454 -.00000113  00000-0  00000+0 0  9995
2 31862   0.0133 158.9693 0000946 323.7935 237.2517  1.00285359 38226
SPACEWAY 3              
1 32018U 07036A   17345.20671528 -.00000159  00000-0  00000+0 0  9996
2 32018   0.0333 130.9742 0000226 148.3499 140.2494  1.00273425 37940
BSAT-3A                 
1 32019U 07036B   17344.47417875 -.00000359  00000-0  00000+0 0  9990
2 32019   0.0526 230.9979 0004656  12.2255 116.7342  1.00274195 37875
INSAT-4CR               
1 32050U 07037A   17344.88024334  .00000117  00000-0  00000-0 0  9997
2 32050   0.0497 267.3343 0003143 351.5401 185.6506  1.00270949 20207
OPTUS D2                
1 32252U 07044A   17345.21804142 -.00000191  00000-0  00000+0 0  9992
2 32252   0.0166  25.9907 0003627 234.0390  50.5916  1.00270769 37255
INTELSAT 11 (IS-11)     
1 32253U 07044B   17344.52549175 -.00000277  00000-0  00000-0 0  9994
2 32253   0.0282 241.6975 0001903  42.6209 301.3120  1.00270945 37333
STAR ONE C1             
1 32293U 07056A   17344.95859804 -.00000284  00000-0  00000+0 0  9998
2 32293   0.0212  73.4663 0002833 199.4362  87.0703  1.00271691 36927
SKYNET 5B               
1 32294U 07056B   17344.93868719  .00000134  00000-0  00000-0 0  9996
2 32294   0.0684   9.8581 0004082 244.4606 188.5589  1.00273893 37020
ASTRA 4A (SIRIUS 4)     
1 32299U 07057A   17345.14421049  .00000025  00000-0  00000+0 0  9995
2 32299   0.0152  15.2822 0003076 255.6489 225.8356  1.00271377 36772
HORIZONS-2              
1 32388U 07063B   17345.08938222 -.00000190  00000-0  00000+0 0  9994
2 32388   0.0093 328.3616 0002792 301.9707 286.6968  1.00271700 36691
THURAYA-3               
1 32404U 08001A   17344.68081654 -.00000313  00000-0  00000-0 0  9997
2 32404   3.9840 355.7902 0004795 262.1261 165.2836  1.00271127 36343
EXPRESS-AM33            
1 32478U 08003A   17345.56365410 -.00000287  00000-0  00000+0 0  9992
2 32478   0.0374 178.5758 0001518 164.9881  36.3047  1.00270029 36433
THOR 5                  
1 32487U 08006A   17345.03521550 -.00000017  00000-0  00000+0 0  9997
2 32487   0.0109 321.7202 0002231 305.9285 184.2102  1.00269973 35994
